{
  "norad_id": 57680,
  "name": "STARLINK-30283",
  "history": [
    {
      "epoch": "2026-03-28T19:37:01.122240Z",
      "apogee_km": 476.3104564374962,
      "perigee_km": 474.1745321843,
      "latitude_deg": 2.295806562612817e-06,
      "longitude_deg": -2.3464508592869366,
      "height_km": 475.86025963069466,
      "semi_major_axis_km": 6853.379494310898,
      "eccentricity": 0.00015583,
      "inclination_deg": 53.1609,
      "raan_deg": 118.1406,
      "arg_perigee_deg": 74.7958,
      "mean_anomaly_deg": 285.3215,
      "mean_motion_rev_day": 15.30190815
    },
    {
      "epoch": "2026-03-30T01:24:01.323360Z",
      "apogee_km": 476.40183637554856,
      "perigee_km": 473.9949449863416,
      "latitude_deg": -2.508537429911372e-05,
      "longitude_deg": -96.08386908665041,
      "height_km": 475.69453299476316,
      "semi_major_axis_km": 6853.335390680945,
      "eccentricity": 0.0001756,
      "inclination_deg": 53.1595,
      "raan_deg": 112.3772,
      "arg_perigee_deg": 70.5184,
      "mean_anomaly_deg": 289.6006,
      "mean_motion_rev_day": 15.30205586
    },
    {
      "epoch": "2026-03-30T06:06:11.516544Z",
      "apogee_km": 476.37082972656845,
      "perigee_km": 474.0961960533414,
      "latitude_deg": 7.749265700578084e-05,
      "longitude_deg": -167.73170246015772,
      "height_km": 475.93673637914986,
      "semi_major_axis_km": 6853.370512889955,
      "eccentricity": 0.00016595,
      "inclination_deg": 53.1604,
      "raan_deg": 111.4649,
      "arg_perigee_deg": 80.1595,
      "mean_anomaly_deg": 279.9594,
      "mean_motion_rev_day": 15.30193823
    },
    {
      "epoch": "2026-03-30T07:40:14.382624Z",
      "apogee_km": 476.3645109965828,
      "perigee_km": 474.0686375492005,
      "latitude_deg": -4.548420283959553e-05,
      "longitude_deg": 168.38969058350966,
      "height_km": 475.91056929764227,
      "semi_major_axis_km": 6853.353574272891,
      "eccentricity": 0.0001675,
      "inclination_deg": 53.16,
      "raan_deg": 111.1627,
      "arg_perigee_deg": 79.7858,
      "mean_anomaly_deg": 280.3331,
      "mean_motion_rev_day": 15.30199496
    },
    {
      "epoch": "2026-03-30T18:38:36.899808Z",
      "apogee_km": 476.2612207993634,
      "perigee_km": 474.1979462557274,
      "latitude_deg": 4.64043892587588e-07,
      "longitude_deg": 1.2210618745630974,
      "height_km": 475.96351156895014,
      "semi_major_axis_km": 6853.366583527545,
      "eccentricity": 0.00015053,
      "inclination_deg": 53.1614,
      "raan_deg": 109.0385,
      "arg_perigee_deg": 80.8529,
      "mean_anomaly_deg": 279.2642,
      "mean_motion_rev_day": 15.30195139
    },
    {
      "epoch": "2026-03-31T18:09:24.416640Z",
      "apogee_km": 476.24517771402225,
      "perigee_km": 474.2056170645592,
      "latitude_deg": 3.553932101564132e-05,
      "longitude_deg": 3.006749750813352,
      "height_km": 476.03315712653614,
      "semi_major_axis_km": 6853.36239738929,
      "eccentricity": 0.0001488,
      "inclination_deg": 53.1615,
      "raan_deg": 104.4878,
      "arg_perigee_deg": 84.9268,
      "mean_anomaly_deg": 275.1903,
      "mean_motion_rev_day": 15.30196541
    },
    {
      "epoch": "2026-04-01T17:40:12.454464Z",
      "apogee_km": 476.2316924490351,
      "perigee_km": 474.2688823299277,
      "latitude_deg": 2.514675824099765e-05,
      "longitude_deg": 4.79042693992173,
      "height_km": 476.10967635292167,
      "semi_major_axis_km": 6853.387287389482,
      "eccentricity": 0.0001432,
      "inclination_deg": 53.1611,
      "raan_deg": 99.9373,
      "arg_perigee_deg": 87.7474,
      "mean_anomaly_deg": 272.3691,
      "mean_motion_rev_day": 15.30188205
    },
    {
      "epoch": "2026-04-02T17:11:00.047328Z",
      "apogee_km": 476.2159959975761,
      "perigee_km": 474.25538313854486,
      "latitude_deg": 2.9713709689614935e-05,
      "longitude_deg": 6.575273925534932,
      "height_km": 476.14451803544426,
      "semi_major_axis_km": 6853.37268956806,
      "eccentricity": 0.00014304,
      "inclination_deg": 53.1607,
      "raan_deg": 95.3861,
      "arg_perigee_deg": 90.6375,
      "mean_anomaly_deg": 269.479,
      "mean_motion_rev_day": 15.30193094
    },
    {
      "epoch": "2026-04-03T08:51:32.423328Z",
      "apogee_km": 476.11659659763063,
      "perigee_km": 474.3806340212732,
      "latitude_deg": 2.7037628967653048e-05,
      "longitude_deg": 127.76219562182851,
      "height_km": 476.1924320339836,
      "semi_major_axis_km": 6853.385615309452,
      "eccentricity": 0.00012665,
      "inclination_deg": 53.1606,
      "raan_deg": 92.3517,
      "arg_perigee_deg": 93.0167,
      "mean_anomaly_deg": 267.0979,
      "mean_motion_rev_day": 15.30188765
    },
    {
      "epoch": "2026-04-04T08:22:20.004960Z",
      "apogee_km": 476.113063848562,
      "perigee_km": 474.3359872049923,
      "latitude_deg": 4.951092691525215e-06,
      "longitude_deg": 129.54736847370793,
      "height_km": 476.1856584849703,
      "semi_major_axis_km": 6853.361525526777,
      "eccentricity": 0.00012965,
      "inclination_deg": 53.1607,
      "raan_deg": 87.8008,
      "arg_perigee_deg": 94.067,
      "mean_anomaly_deg": 266.0479,
      "mean_motion_rev_day": 15.30196833
    },
    {
      "epoch": "2026-04-05T09:27:11.739168Z",
      "apogee_km": 476.18263509668486,
      "perigee_km": 474.32701072671443,
      "latitude_deg": 1.1630457118079224e-05,
      "longitude_deg": 107.44847132532807,
      "height_km": 476.1635552708439,
      "semi_major_axis_km": 6853.3918229117,
      "eccentricity": 0.00013538,
      "inclination_deg": 53.1611,
      "raan_deg": 82.9475,
      "arg_perigee_deg": 90.6584,
      "mean_anomaly_deg": 269.4572,
      "mean_motion_rev_day": 15.30186686
    },
    {
      "epoch": "2026-04-05T15:43:24.174624Z",
      "apogee_km": 476.1551777905861,
      "perigee_km": 474.3225850798908,
      "latitude_deg": -1.9041100595516095e-05,
      "longitude_deg": 11.927828888972446,
      "height_km": 476.22625100139624,
      "semi_major_axis_km": 6853.375881435239,
      "eccentricity": 0.0001337,
      "inclination_deg": 53.1612,
      "raan_deg": 81.7362,
      "arg_perigee_deg": 95.5897,
      "mean_anomaly_deg": 264.5256,
      "mean_motion_rev_day": 15.30192025
    },
    {
      "epoch": "2026-04-06T02:41:46.083552Z",
      "apogee_km": 475.82083146972127,
      "perigee_km": 474.59833150651593,
      "latitude_deg": 8.623551650931876e-06,
      "longitude_deg": -155.23817352827817,
      "height_km": 476.33165639430234,
      "semi_major_axis_km": 6853.346581488118,
      "eccentricity": 8.919e-05,
      "inclination_deg": 53.1591,
      "raan_deg": 79.6121,
      "arg_perigee_deg": 111.4484,
      "mean_anomaly_deg": 248.6612,
      "mean_motion_rev_day": 15.30201838
    },
    {
      "epoch": "2026-04-07T05:20:40.872192Z",
      "apogee_km": 475.9140872714361,
      "perigee_km": 474.56027173601706,
      "latitude_deg": 7.660510051888152e-05,
      "longitude_deg": 158.78047110580923,
      "height_km": 476.0536873125202,
      "semi_major_axis_km": 6853.374179503727,
      "eccentricity": 9.877e-05,
      "inclination_deg": 53.1603,
      "raan_deg": 74.4534,
      "arg_perigee_deg": 83.044,
      "mean_anomaly_deg": 277.0674,
      "mean_motion_rev_day": 15.30192595
    },
    {
      "epoch": "2026-04-08T07:59:34.611072Z",
      "apogee_km": 475.9907794929295,
      "perigee_km": 474.4863264915366,
      "latitude_deg": 2.5306774716712092e-05,
      "longitude_deg": 112.80461239623139,
      "height_km": 476.7858096469545,
      "semi_major_axis_km": 6853.375552992233,
      "eccentricity": 0.00010976,
      "inclination_deg": 53.1603,
      "raan_deg": 69.2959,
      "arg_perigee_deg": 210.6874,
      "mean_anomaly_deg": 149.4063,
      "mean_motion_rev_day": 15.30192135
    }
  ]
}